EYESAT A (AO-27)        
1 22825U 93061C   26132.47840235  .00000046  00000+0  34367-4 0  9991
2 22825  98.6892 199.9017 0008025 197.5973 162.4932 14.30932168701894
ITAMSAT (IO-26)         
1 22826U 93061D   26132.46844700  .00000041  00000+0  32501-4 0  9995
2 22826  98.6840 199.8056 0008878 181.2449 178.8713 14.31358097702202
RADIO ROSTO (RS15)      
1 23439U 94085A   26132.81772697 -.00000045  00000+0 -77896-4 0  9999
2 23439  64.8193   0.4203 0154957  10.3508 350.0547 11.27583711291913
JAS-2 (FO-29)           
1 24278U 96046B   26132.82172513 -.00000025  00000+0  10649-4 0  9992
2 24278  98.5279 346.5311 0349707 188.0537 171.4897 13.53272310468383
FORTE                   
1 24920U 97047A   26132.57967093  .00000103  00000+0  64688-4 0  9993
2 24920  69.9521  94.4469 0023650 320.9231  39.0181 14.27929787493603
TECHSAT 1B (GO-32)      
1 25397U 98043D   26132.87255970  .00000029  00000+0  32726-4 0  9991
2 25397  99.0064 124.7427 0001011  13.1949 346.9255 14.24421265446305
ISS (ZARYA)             
1 25544U 98067A   26132.84394688  .00005010  00000+0  98361-4 0  9990
2 25544  51.6312 115.0561 0007510  52.2723 307.8945 15.49198654566277
IMAGE                   
1 26113U 00017A   26131.51486742  .00000008  00000+0 -20584-1 0  9999
2 26113  94.2002 314.8870 7459903 291.9767   8.1989  1.68665748160880
CLUSTER II-FM7 (SAMBA)  
1 26410U 00041A   26134.67012284  .00003081  00000+0  00000+0 0  9994
2 26410 149.8131  45.0140 9016039 261.7471   0.4872  0.44842106 20150
CLUSTER II-FM8 (TANGO)  
1 26464U 00045B   26134.64524914  .00003165  00000+0  00000+0 0  9995
2 26464 150.0702  46.0108 9019980 262.6015   0.5030  0.44404709 20143
ODIN                    
1 26702U 01007A   26132.53654964  .00074863  00000+0  72794-3 0  9990
2 26702  97.3936 171.4659 0001948 199.4523 160.6662 15.66058166383807
OMNI-M1                 
1 26857U 01026A   26132.55669822 -.00000019  00000+0  00000+0 0  9993
2 26857  44.8439 253.4765 0015447  47.3287 312.8214  3.92401465204175
PCSAT (NO-44)           
1 26931U 01043C   26132.53798604  .00000068  00000+0  56189-4 0  9991
2 26931  67.0512 336.4774 0006284 263.6947  96.3440 14.31941857285346
PROBA-1                 
1 26958U 01049B   26132.88876668  .00001527  00000+0  10243-3 0  9992
2 26958  97.9616 140.1912 0053765 241.6951 117.8845 15.07362171338306
SAUDISAT 1C (SO-50)     
1 27607U 02058C   26132.34773994  .00000635  00000+0  92778-4 0  9997
2 27607  64.5523 239.8634 0075634 269.0204  90.2235 14.82969432259142
CORIOLIS                
1 27640U 03001A   26132.75316753  .00000070  00000+0  53662-4 0  9996
2 27640  98.7136 140.1782 0013175 318.8902  41.1281 14.19934752209199
CUTE-1 (CO-55)          
1 27844U 03031E   26132.77239405  .00000191  00000+0  10155-3 0  9998
2 27844  98.6747 141.7761 0008348 291.1479  68.8807 14.24313071186638
CUBESAT XI-IV (CO-57)   
1 27848U 03031J   26132.46199470  .00000167  00000+0  92608-4 0  9992
2 27848  98.6779 141.2109 0008495 313.1821  46.8647 14.23601104186293
MOZHAETS 4 (RS22)       
1 27939U 03042A   26132.84332200  .00001096  00000+0  17720-3 0  9990
2 27939  98.3476 316.2061 0011907  26.8479  97.7232 14.73405051210342
