OBJECT_NAME,OBJECT_ID,EPOCH,MEAN_MOTION,ECCENTRICITY,INCLINATION,RA_OF_ASC_NODE,ARG_OF_PERICENTER,MEAN_ANOMALY,EPHEMERIS_TYPE,CLASSIFICATION_TYPE,NORAD_CAT_ID,ELEMENT_SET_NO,REV_AT_EPOCH,BSTAR,MEAN_MOTION_DOT,MEAN_MOTION_DDOT
EYESAT A (AO-27),1993-061C,2026-05-12T11:28:53.963040,14.30932168,.0008025,98.6892,199.9017,197.5973,162.4932,0,U,22825,999,70189,.34367E-4,.46E-6,0
ITAMSAT (IO-26),1993-061D,2026-05-12T11:14:33.820800,14.31358097,.0008878,98.6840,199.8056,181.2449,178.8713,0,U,22826,999,70220,.32501E-4,.41E-6,0
RADIO ROSTO (RS15),1994-085A,2026-05-12T19:37:31.610208,11.27583711,.0154957,64.8193,0.4203,10.3508,350.0547,0,U,23439,999,29191,-.77896E-4,-.45E-6,0
JAS-2 (FO-29),1996-046B,2026-05-12T19:43:17.051232,13.53272310,.0349707,98.5279,346.5311,188.0537,171.4897,0,U,24278,999,46838,.10649E-4,-.25E-6,0
FORTE,1997-047A,2026-05-12T13:54:43.568352,14.27929787,.002365,69.9521,94.4469,320.9231,39.0181,0,U,24920,999,49360,.64688E-4,.103E-5,0
TECHSAT 1B (GO-32),1998-043D,2026-05-12T20:56:29.158080,14.24421265,.0001011,99.0064,124.7427,13.1949,346.9255,0,U,25397,999,44630,.32726E-4,.29E-6,0
ISS (ZARYA),1998-067A,2026-05-12T20:15:17.010432,15.49198654,.000751,51.6312,115.0561,52.2723,307.8945,0,U,25544,999,56627,.98361E-4,.501E-4,0
IMAGE,2000-017A,2026-05-11T12:21:24.545088,1.68665748,.74599038,94.2002,314.8870,291.9767,8.1989,0,U,26113,999,16088,-.20584314E-1,.8E-7,0
CLUSTER II-FM7 (SAMBA),2000-041A,2026-05-14T16:04:58.613376,0.44842106,.9016039,149.8131,45.0140,261.7471,0.4872,0,U,26410,999,2015,0,.3081E-4,0
CLUSTER II-FM8 (TANGO),2000-045B,2026-05-14T15:29:09.525696,0.44404709,.901998,150.0702,46.0108,262.6015,0.5030,0,U,26464,999,2014,0,.3165E-4,0
ODIN,2001-007A,2026-05-12T12:52:37.888896,15.66058166,.0001948,97.3936,171.4659,199.4523,160.6662,0,U,26702,999,38380,.72794E-3,.74863E-3,0
OMNI-M1,2001-026A,2026-05-12T13:21:38.726208,3.92401465,.0015447,44.8439,253.4765,47.3287,312.8214,0,U,26857,999,20417,0,-.19E-6,0
PCSAT (NO-44),2001-043C,2026-05-12T12:54:41.993856,14.31941857,.0006284,67.0512,336.4774,263.6947,96.3440,0,U,26931,999,28534,.56189E-4,.68E-6,0
PROBA-1,2001-049B,2026-05-12T21:19:49.441152,15.07362171,.0053765,97.9616,140.1912,241.6951,117.8845,0,U,26958,999,33830,.10243E-3,.1527E-4,0
SAUDISAT 1C (SO-50),2002-058C,2026-05-12T08:20:44.730816,14.82969432,.0075634,64.5523,239.8634,269.0204,90.2235,0,U,27607,999,25914,.92778E-4,.635E-5,0
CORIOLIS,2003-001A,2026-05-12T18:04:33.674592,14.19934752,.0013175,98.7136,140.1782,318.8902,41.1281,0,U,27640,999,20919,.53662E-4,.7E-6,0
CUTE-1 (CO-55),2003-031E,2026-05-12T18:32:14.845920,14.24313071,.0008348,98.6747,141.7761,291.1479,68.8807,0,U,27844,999,18663,.10155E-3,.191E-5,0
CUBESAT XI-IV (CO-57),2003-031J,2026-05-12T11:05:16.342080,14.23601104,.0008495,98.6779,141.2109,313.1821,46.8647,0,U,27848,999,18629,.92608E-4,.167E-5,0
MOZHAETS 4 (RS22),2003-042A,2026-05-12T20:14:23.020800,14.73405051,.0011907,98.3476,316.2061,26.8479,97.7232,0,U,27939,999,21034,.1772E-3,.1096E-4,0
